[{"OBJECT_NAME":"STARLINK-5316","OBJECT_ID":"2023-010AN","EPOCH":"2026-03-09T22:49:06.160800","MEAN_MOTION":14.98327455,"ECCENTRICITY":0.00028885,"INCLINATION":70.0012,"RA_OF_ASC_NODE":23.987,"ARG_OF_PERICENTER":269.3873,"MEAN_ANOMALY":90.6955,"EPHEMERIS_TYPE":0,"CLASSIFICATION_TYPE":"U","NORAD_CAT_ID":55305,"ELEMENT_SET_NO":999,"REV_AT_EPOCH":17331,"BSTAR":-3.714607e-6,"MEAN_MOTION_DOT":-1.37e-6,"MEAN_MOTION_DDOT":0},{"OBJECT_NAME":"HAWK-9B","OBJECT_ID":"2024-066J","EPOCH":"2026-03-09T10:21:05.061312","MEAN_MOTION":14.9877824,"ECCENTRICITY":0.00037519,"INCLINATION":45.6215,"RA_OF_ASC_NODE":73.5456,"ARG_OF_PERICENTER":229.3903,"MEAN_ANOMALY":130.6652,"EPHEMERIS_TYPE":0,"CLASSIFICATION_TYPE":"U","NORAD_CAT_ID":59450,"ELEMENT_SET_NO":999,"REV_AT_EPOCH":10486,"BSTAR":0.00023214291,"MEAN_MOTION_DOT":2.608e-5,"MEAN_MOTION_DDOT":0}]
